STARLINK-33638          
1 63436U 25069D   26068.43606131  .00022588  00000+0  77283-3 0  9994
2 63436  53.1577 143.8151 0001288 102.7718 257.3427 15.30183365 53362
COSMOS 2588             
1 64095U 25109A   26068.81179522  .00009169  00000+0  32611-3 0  9998
2 64095  72.9704  73.5401 0005019 308.6780  51.3966 15.29122656 44425
