[{"OBJECT_NAME":"STARLINK-33638","OBJECT_ID":"2025-069D","EPOCH":"2026-03-09T10:27:55.697184","MEAN_MOTION":15.30183365,"ECCENTRICITY":0.0001288,"INCLINATION":53.1577,"RA_OF_ASC_NODE":143.8151,"ARG_OF_PERICENTER":102.7718,"MEAN_ANOMALY":257.3427,"EPHEMERIS_TYPE":0,"CLASSIFICATION_TYPE":"U","NORAD_CAT_ID":63436,"ELEMENT_SET_NO":999,"REV_AT_EPOCH":5336,"BSTAR":0.00077282913,"MEAN_MOTION_DOT":0.00022588,"MEAN_MOTION_DDOT":0},{"OBJECT_NAME":"COSMOS 2588","OBJECT_ID":"2025-109A","EPOCH":"2026-03-09T19:28:59.107008","MEAN_MOTION":15.29122656,"ECCENTRICITY":0.0005019,"INCLINATION":72.9704,"RA_OF_ASC_NODE":73.5401,"ARG_OF_PERICENTER":308.678,"MEAN_ANOMALY":51.3966,"EPHEMERIS_TYPE":0,"CLASSIFICATION_TYPE":"U","NORAD_CAT_ID":64095,"ELEMENT_SET_NO":999,"REV_AT_EPOCH":4442,"BSTAR":0.00032611,"MEAN_MOTION_DOT":9.169e-5,"MEAN_MOTION_DDOT":0}]
